NORAD_CAT_ID,OBJECT_NAME,OBJECT_TYPE,EPOCH,MEAN_MOTION,ECCENTRICITY,INCLINATION,RA_OF_ASC_NODE,ARG_OF_PERICENTER,MEAN_ANOMALY,BSTAR,MEAN_MOTION_DOT,MEAN_MOTION_DDOT,TLE_LINE0,TLE_LINE1,TLE_LINE2,SEMIMAJOR_AXIS,PERIOD,APOGEE,PERIGEE,DECAYED
51802.0,STARLINK-3557,PAYLOAD,2023-02-03 07:37:32,15.08850195,0.000162,53.2164,23.5473,93.1437,266.9741,0.00045294,6.93e-05,0.0,0 STARLINK-3557,1 51802U 22017AL  23034.31774017  .00006930  00000-0  45294-3 0  9995,2 51802  53.2164  23.5473 0001620  93.1437 266.9741 15.08850195 53273,6917.849,95.437,540.835,538.594,0.0
51802.0,STARLINK-3557,PAYLOAD,2023-02-04 06:00:00,15.08879743,0.0001524,53.2164,19.3638,95.4845,291.3098,-0.0061925,-0.00097614,0.0,0 STARLINK-3557,1 51802U 22017AL  23035.25001157 -.00097614  00000-0 -61925-2 0  9996,2 51802  53.2164  19.3638 0001524  95.4845 291.3098 15.08879743 53413,6917.759,95.435,540.678,538.57,0.0
51802.0,STARLINK-3557,PAYLOAD,2023-02-04 09:03:43,15.08847645,0.000166,53.218,18.7894,94.1849,265.9333,0.00028052,4.18e-05,0.0,0 STARLINK-3557,1 51802U 22017AL  23035.37758180  .00004180  00000-0  28052-3 0  9993,2 51802  53.2180  18.7894 0001660  94.1849 265.9333 15.08847645 53436,6917.857,95.437,540.87,538.574,0.0
51802.0,STARLINK-3557,PAYLOAD,2023-02-04 22:00:00,15.08810026,0.0001503,53.2165,16.3693,101.2824,308.6772,0.003176,0.00050579,0.0,0 STARLINK-3557,1 51802U 22017AL  23035.91667824  .00050579  00000-0  31760-2 0  9999,2 51802  53.2165  16.3693 0001503 101.2824 308.6772 15.08810026 53513,6917.972,95.439,540.877,538.797,0.0
51802.0,STARLINK-3557,PAYLOAD,2023-02-05 07:19:07,15.08834838,0.0001529,53.2166,14.6256,97.959,262.1576,8.7676e-05,1.107e-05,0.0,0 STARLINK-3557,1 51802U 22017AL  23036.30494749  .00001107  00000-0  87676-4 0  9999,2 51802  53.2166  14.6256 0001529  97.9590 262.1576 15.08834838 53578,6917.896,95.438,540.819,538.703,0.0
51802.0,STARLINK-3557,PAYLOAD,2023-02-06 07:09:54,15.08852444,0.0001484,53.2163,10.1649,98.8171,261.299,0.00052928,8.148e-05,0.0,0 STARLINK-3557,1 51802U 22017AL  23037.29854685  .00008148  00000-0  52928-3 0  9990,2 51802  53.2163  10.1649 0001484  98.8171 261.2990 15.08852444 53727,6917.842,95.437,540.734,538.681,0.0
51802.0,STARLINK-3557,PAYLOAD,2023-02-06 21:28:22,15.08852684,0.0001789,53.2172,7.4899,88.8387,271.281,0.00042584,6.498e-05,0.0,0 STARLINK-3557,1 51802U 22017AL  23037.89470650  .00006498  00000-0  42584-3 0  9995,2 51802  53.2172   7.4899 0001789  88.8387 271.2810 15.08852684 53817,6917.842,95.437,540.944,538.469,0.0
51802.0,STARLINK-3557,PAYLOAD,2023-02-07 03:49:54,15.08854824,0.0001685,53.2172,6.3001,92.4515,267.667,0.00038265,5.81e-05,0.0,0 STARLINK-3557,1 51802U 22017AL  23038.15966368  .00005810  00000-0  38265-3 0  9999,2 51802  53.2172   6.3001 0001685  92.4515 267.6670 15.08854824 53854,6917.835,95.437,540.866,538.534,0.0
51802.0,STARLINK-3557,PAYLOAD,2023-02-07 07:00:40,15.08865761,0.0001532,53.2167,5.7051,90.697,269.4197,0.00070112,0.00010896,0.0,0 STARLINK-3557,1 51802U 22017AL  23038.29214012  .00010896  00000-0  70112-3 0  9993,2 51802  53.2167   5.7051 0001532  90.6970 269.4197 15.08865761 53870,6917.802,95.436,540.726,538.607,0.0
51802.0,STARLINK-3557,PAYLOAD,2023-02-07 21:19:09,15.08850438,0.0001701,53.2175,3.0301,85.3483,274.7703,0.00027452,4.085e-05,0.0,0 STARLINK-3557,1 51802U 22017AL  23038.88830478  .00004085  00000-0  27452-3 0  9990,2 51802  53.2175   3.0301 0001701  85.3483 274.7703 15.08850438 53963,6917.848,95.437,540.89,538.537,0.0
51802.0,STARLINK-3557,PAYLOAD,2023-02-08 06:51:28,15.08860458,0.0001546,53.2166,1.2439,82.0178,278.0989,0.0010895,0.00017104,0.0,0 STARLINK-3557,1 51802U 22017AL  23039.28574177  .00017104  00000-0  10895-2 0  9994,2 51802  53.2166   1.2439 0001546  82.0178 278.0989 15.08860458 54021,6917.818,95.436,540.752,538.613,0.0
51802.0,STARLINK-3557,PAYLOAD,2023-02-09 03:31:29,15.0884194,0.0001253,53.2171,357.3792,90.1652,269.9484,0.00086781,0.00013551,0.0,0 STARLINK-3557,1 51802U 22017AL  23040.14686869  .00013551  00000-0  86781-3 0  9993,2 51802  53.2171 357.3792 0001253  90.1652 269.9484 15.08841940 54154,6917.874,95.437,540.606,538.873,0.0
51802.0,STARLINK-3557,PAYLOAD,2023-02-09 06:42:15,15.08854398,0.00013,53.2168,356.7842,89.3721,270.742,0.0011535,0.00018125,0.0,0 STARLINK-3557,1 51802U 22017AL  23040.27934678  .00018125  00000-0  11535-2 0  9997,2 51802  53.2168 356.7842 0001300  89.3721 270.7420 15.08854398 54172,6917.836,95.437,540.601,538.802,0.0
51802.0,STARLINK-3557,PAYLOAD,2023-02-10 03:22:16,15.08864581,0.0001079,53.2171,352.9186,108.9805,251.1304,0.0018732,0.0002967,0.0,0 STARLINK-3557,1 51802U 22017AL  23041.14046591  .00029670  00000-0  18732-2 0  9995,2 51802  53.2171 352.9186 0001079 108.9805 251.1304 15.08864581 54303,6917.805,95.436,540.417,538.924,0.0
51802.0,STARLINK-3557,PAYLOAD,2023-02-11 03:13:03,15.08855826,0.0001724,53.2168,348.4591,97.2169,262.902,0.0014629,0.00023081,0.0,0 STARLINK-3557,1 51802U 22017AL  23042.13406921  .00023081  00000-0  14629-2 0  9993,2 51802  53.2168 348.4591 0001724  97.2169 262.9020 15.08855826 54452,6917.832,95.437,540.89,538.504,0.0
51802.0,STARLINK-3557,PAYLOAD,2023-02-11 19:06:55,15.08841674,0.0001273,53.2162,345.4833,85.6246,274.4892,0.0013292,0.0002093,0.0,0 STARLINK-3557,1 51802U 22017AL  23042.79647368  .00020930  00000-0  13292-2 0  9992,2 51802  53.2162 345.4833 0001273  85.6246 274.4892 15.08841674 54550,6917.875,95.437,540.621,538.86,0.0
51802.0,STARLINK-3557,PAYLOAD,2023-02-11 20:42:18,15.08848274,0.0001397,53.2175,345.1888,93.4121,266.7031,0.0013576,0.00021389,0.0,0 STARLINK-3557,1 51802U 22017AL  23042.86271211  .00021389  00000-0  13576-2 0  9994,2 51802  53.2175 345.1888 0001397  93.4121 266.7031 15.08848274 54560,6917.855,95.437,540.687,538.754,0.0
51802.0,STARLINK-3557,PAYLOAD,2023-02-12 03:03:50,15.08885498,0.0001358,53.217,343.9992,90.4919,269.6229,0.0024784,0.00039426,0.0,0 STARLINK-3557,1 51802U 22017AL  23043.12766505  .00039426  00000-0  24784-2 0  9993,2 51802  53.2170 343.9992 0001358  90.4919 269.6229 15.08885498 54601,6917.741,95.435,540.546,538.667,0.0
51802.0,STARLINK-3557,PAYLOAD,2023-02-12 06:14:36,15.08898902,0.0001335,53.2175,343.4045,92.7353,267.3792,0.002629,0.00041869,0.0,0 STARLINK-3557,1 51802U 22017AL  23043.26014028  .00041869  00000-0  26290-2 0  9992,2 51802  53.2175 343.4045 0001335  92.7353 267.3792 15.08898902 54628,6917.7,95.434,540.489,538.642,0.0
51802.0,STARLINK-3557,PAYLOAD,2023-02-12 18:57:42,15.08860598,0.0004332,53.2164,341.0249,69.2303,290.9153,0.0013435,0.00021173,0.0,0 STARLINK-3557,1 51802U 22017AL  23043.79007323  .00021173  00000-0  13435-2 0  9993,2 51802  53.2164 341.0249 0004332  69.2303 290.9153 15.08860598 54702,6917.817,95.436,542.679,536.686,0.0
51802.0,STARLINK-3557,PAYLOAD,2023-02-13 02:54:38,15.088294,0.000192,53.2173,339.5394,68.084,292.0356,0.0015163,0.00023919,0.0,0 STARLINK-3557,1 51802U 22017AL  23044.12127600  .00023919  00000-0  15163-2 0  9992,2 51802  53.2173 339.5394 0001920  68.0840 292.0356 15.08829400 54758,6917.913,95.438,541.106,538.45,0.0
51802.0,STARLINK-3557,PAYLOAD,2023-02-13 12:26:57,15.08828357,0.0001683,53.2163,337.7542,70.3684,289.7489,0.0011541,0.00018121,0.0,0 STARLINK-3557,1 51802U 22017AL  23044.51872142  .00018121  00000-0  11541-2 0  9998,2 51802  53.2163 337.7542 0001683  70.3684 289.7489 15.08828357 54817,6917.916,95.438,540.945,538.617,0.0
51802.0,STARLINK-3557,PAYLOAD,2023-02-14 12:17:44,15.08844741,0.0001404,53.2161,333.2947,78.1398,281.9751,0.0014685,0.00023163,0.0,0 STARLINK-3557,1 51802U 22017AL  23045.51231959  .00023163  00000-0  14685-2 0  9998,2 51802  53.2161 333.2947 0001404  78.1398 281.9751 15.08844741 54961,6917.866,95.437,540.702,538.76,0.0
51802.0,STARLINK-3557,PAYLOAD,2023-02-15 02:36:12,15.08852509,0.0001266,53.217,330.6182,80.7096,279.4039,0.0007758,0.00012085,0.0,0 STARLINK-3557,1 51802U 22017AL  23046.10847671  .00012085  00000-0  77580-3 0  9993,2 51802  53.2170 330.6182 0001266  80.7096 279.4039 15.08852509 55056,6917.842,95.437,540.583,538.831,0.0
51802.0,STARLINK-3557,PAYLOAD,2023-02-15 12:08:31,15.08848751,0.0001475,53.2164,328.834,65.2739,294.8407,0.00054122,8.338e-05,0.0,0 STARLINK-3557,1 51802U 22017AL  23046.50591853  .00008338  00000-0  54122-3 0  9998,2 51802  53.2164 328.8340 0001475  65.2739 294.8407 15.08848751 55119,6917.854,95.437,540.739,538.698,0.0
51802.0,STARLINK-3557,PAYLOAD,2023-02-16 11:59:18,15.08851869,0.0001231,53.2171,324.3737,73.9673,286.1455,0.00058388,9.02e-05,0.0,0 STARLINK-3557,1 51802U 22017AL  23047.49951518  .00009020  00000-0  58388-3 0  9992,2 51802  53.2171 324.3737 0001231  73.9673 286.1455 15.08851869 55268,6917.844,95.437,540.561,538.858,0.0
51802.0,STARLINK-3557,PAYLOAD,2023-02-16 21:31:37,15.0882408,7.71e-05,53.2175,322.5897,69.556,290.5515,-0.00025611,-4.359e-05,0.0,0 STARLINK-3557,1 51802U 22017AL  23047.89695988 -.00004359  00000-0 -25611-3 0  9997,2 51802  53.2175 322.5897 0000771  69.5560 290.5515 15.08824080 55321,6917.929,95.439,540.327,539.261,0.0
51802.0,STARLINK-3557,PAYLOAD,2023-02-17 00:42:23,15.08838845,0.0001101,53.2178,321.9941,85.6271,274.4847,0.00013067,1.792e-05,0.0,0 STARLINK-3557,1 51802U 22017AL  23048.02943936  .00001792  00000-0  13067-3 0  9990,2 51802  53.2178 321.9941 0001101  85.6271 274.4847 15.08838845 55348,6917.884,95.438,540.511,538.987,0.0
51802.0,STARLINK-3557,PAYLOAD,2023-02-17 03:53:09,15.08844725,0.000124,53.2171,321.3962,103.694,256.419,0.00039976,6.081e-05,0.0,0 STARLINK-3557,1 51802U 22017AL  23048.16191815  .00006081  00000-0  39976-3 0  9999,2 51802  53.2171 321.3962 0001240 103.6940 256.4190 15.08844725 55363,6917.866,95.437,540.589,538.873,0.0
51802.0,STARLINK-3557,PAYLOAD,2023-02-17 21:22:25,15.0881308,0.0001225,53.2178,318.1284,83.4951,276.618,0.00033778,5.088e-05,0.0,0 STARLINK-3557,1 51802U 22017AL  23048.89057847  .00005088  00000-0  33778-3 0  9995,2 51802  53.2178 318.1284 0001225  83.4951 276.6180 15.08813080 55476,6917.963,95.439,540.675,538.98,0.0
